STARLINK-30821          
1 58181U 23167G   26067.48837774  .00003376  00000+0  13541-3 0  9996
2 58181  42.9974 149.9789 0001105 242.9585 117.1154 15.26757242130790
BANDWAGON-4 OBJECT N    
1 66305U 25248N   26068.03100984  .00024115  00000+0  97341-3 0  9997
2 66305  45.4084 294.9612 0013521 206.7837 153.2354 15.24369076 17177
